<?xml version="1.0" encoding="UTF-8"?>
<ndm xmlns:xsi="http://www.w3.org/2001/XMLSchema-instance" xsi:noNamespaceSchemaLocation="https://sanaregistry.org/r/ndmxml_unqualified/ndmxml-2.0.0-master-2.0.xsd">
<omm id="CCSDS_OMM_VERS" version="2.0">
<header><CREATION_DATE/><ORIGINATOR/></header><body><segment><metadata><OBJECT_NAME>KUIPER-00053</OBJECT_NAME><OBJECT_ID>2025-134P</OBJECT_ID><CENTER_NAME>EARTH</CENTER_NAME><REF_FRAME>TEME</REF_FRAME><TIME_SYSTEM>UTC</TIME_SYSTEM><MEAN_ELEMENT_THEORY>SGP4</MEAN_ELEMENT_THEORY></metadata><data><meanElements><EPOCH>2025-11-18T09:30:04.369824</EPOCH><MEAN_MOTION>14.79876591</MEAN_MOTION><ECCENTRICITY>.00023724</ECCENTRICITY><INCLINATION>51.9033</INCLINATION><RA_OF_ASC_NODE>354.9812</RA_OF_ASC_NODE><ARG_OF_PERICENTER>319.3690</ARG_OF_PERICENTER><MEAN_ANOMALY>40.7095</MEAN_ANOMALY></meanElements><tleParameters><EPHEMERIS_TYPE>0</EPHEMERIS_TYPE><CLASSIFICATION_TYPE>U</CLASSIFICATION_TYPE><NORAD_CAT_ID>64513</NORAD_CAT_ID><ELEMENT_SET_NO>999</ELEMENT_SET_NO><REV_AT_EPOCH>2373</REV_AT_EPOCH><BSTAR>.46694776E-3</BSTAR><MEAN_MOTION_DOT>.3335E-4</MEAN_MOTION_DOT><MEAN_MOTION_DDOT>0</MEAN_MOTION_DDOT></tleParameters></data></segment></body></omm>
<omm id="CCSDS_OMM_VERS" version="2.0">
<header><CREATION_DATE/><ORIGINATOR/></header><body><segment><metadata><OBJECT_NAME>KUIPER-00054</OBJECT_NAME><OBJECT_ID>2025-134Q</OBJECT_ID><CENTER_NAME>EARTH</CENTER_NAME><REF_FRAME>TEME</REF_FRAME><TIME_SYSTEM>UTC</TIME_SYSTEM><MEAN_ELEMENT_THEORY>SGP4</MEAN_ELEMENT_THEORY></metadata><data><meanElements><EPOCH>2025-11-20T05:57:15.712128</EPOCH><MEAN_MOTION>14.79833634</MEAN_MOTION><ECCENTRICITY>.0004772</ECCENTRICITY><INCLINATION>51.8987</INCLINATION><RA_OF_ASC_NODE>342.0329</RA_OF_ASC_NODE><ARG_OF_PERICENTER>305.8644</ARG_OF_PERICENTER><MEAN_ANOMALY>54.1875</MEAN_ANOMALY></meanElements><tleParameters><EPHEMERIS_TYPE>0</EPHEMERIS_TYPE><CLASSIFICATION_TYPE>U</CLASSIFICATION_TYPE><NORAD_CAT_ID>64514</NORAD_CAT_ID><ELEMENT_SET_NO>999</ELEMENT_SET_NO><REV_AT_EPOCH>2407</REV_AT_EPOCH><BSTAR>.37782E-3</BSTAR><MEAN_MOTION_DOT>.2653E-4</MEAN_MOTION_DOT><MEAN_MOTION_DDOT>0</MEAN_MOTION_DDOT></tleParameters></data></segment></body></omm>
<omm id="CCSDS_OMM_VERS" version="2.0">
<header><CREATION_DATE/><ORIGINATOR/></header><body><segment><metadata><OBJECT_NAME>KUIPER-00055</OBJECT_NAME><OBJECT_ID>2025-134R</OBJECT_ID><CENTER_NAME>EARTH</CENTER_NAME><REF_FRAME>TEME</REF_FRAME><TIME_SYSTEM>UTC</TIME_SYSTEM><MEAN_ELEMENT_THEORY>SGP4</MEAN_ELEMENT_THEORY></metadata><data><meanElements><EPOCH>2025-11-20T08:14:19.562208</EPOCH><MEAN_MOTION>15.16976670</MEAN_MOTION><ECCENTRICITY>.0002377</ECCENTRICITY><INCLINATION>51.8921</INCLINATION><RA_OF_ASC_NODE>333.5132</RA_OF_ASC_NODE><ARG_OF_PERICENTER>76.1857</ARG_OF_PERICENTER><MEAN_ANOMALY>283.9386</MEAN_ANOMALY></meanElements><tleParameters><EPHEMERIS_TYPE>0</EPHEMERIS_TYPE><CLASSIFICATION_TYPE>U</CLASSIFICATION_TYPE><NORAD_CAT_ID>64515</NORAD_CAT_ID><ELEMENT_SET_NO>999</ELEMENT_SET_NO><REV_AT_EPOCH>2420</REV_AT_EPOCH><BSTAR>.9322E-3</BSTAR><MEAN_MOTION_DOT>.1838E-3</MEAN_MOTION_DOT><MEAN_MOTION_DDOT>0</MEAN_MOTION_DDOT></tleParameters></data></segment></body></omm>
<omm id="CCSDS_OMM_VERS" version="2.0">
<header><CREATION_DATE/><ORIGINATOR/></header><body><segment><metadata><OBJECT_NAME>KUIPER-00056</OBJECT_NAME><OBJECT_ID>2025-134S</OBJECT_ID><CENTER_NAME>EARTH</CENTER_NAME><REF_FRAME>TEME</REF_FRAME><TIME_SYSTEM>UTC</TIME_SYSTEM><MEAN_ELEMENT_THEORY>SGP4</MEAN_ELEMENT_THEORY></metadata><data><meanElements><EPOCH>2025-11-20T09:01:28.576416</EPOCH><MEAN_MOTION>14.79942890</MEAN_MOTION><ECCENTRICITY>.0001486</ECCENTRICITY><INCLINATION>51.9030</INCLINATION><RA_OF_ASC_NODE>347.4982</RA_OF_ASC_NODE><ARG_OF_PERICENTER>305.9793</ARG_OF_PERICENTER><MEAN_ANOMALY>54.1031</MEAN_ANOMALY></meanElements><tleParameters><EPHEMERIS_TYPE>0</EPHEMERIS_TYPE><CLASSIFICATION_TYPE>U</CLASSIFICATION_TYPE><NORAD_CAT_ID>64516</NORAD_CAT_ID><ELEMENT_SET_NO>999</ELEMENT_SET_NO><REV_AT_EPOCH>2401</REV_AT_EPOCH><BSTAR>-.50594E-4</BSTAR><MEAN_MOTION_DOT>-.607E-5</MEAN_MOTION_DOT><MEAN_MOTION_DDOT>0</MEAN_MOTION_DDOT></tleParameters></data></segment></body></omm>
<omm id="CCSDS_OMM_VERS" version="2.0">
<header><CREATION_DATE/><ORIGINATOR/></header><body><segment><metadata><OBJECT_NAME>KUIPER-00057</OBJECT_NAME><OBJECT_ID>2025-134T</OBJECT_ID><CENTER_NAME>EARTH</CENTER_NAME><REF_FRAME>TEME</REF_FRAME><TIME_SYSTEM>UTC</TIME_SYSTEM><MEAN_ELEMENT_THEORY>SGP4</MEAN_ELEMENT_THEORY></metadata><data><meanElements><EPOCH>2025-11-20T08:49:45.848928</EPOCH><MEAN_MOTION>14.79880628</MEAN_MOTION><ECCENTRICITY>.000888</ECCENTRICITY><INCLINATION>51.9008</INCLINATION><RA_OF_ASC_NODE>355.0300</RA_OF_ASC_NODE><ARG_OF_PERICENTER>277.0588</ARG_OF_PERICENTER><MEAN_ANOMALY>82.9364</MEAN_ANOMALY></meanElements><tleParameters><EPHEMERIS_TYPE>0</EPHEMERIS_TYPE><CLASSIFICATION_TYPE>U</CLASSIFICATION_TYPE><NORAD_CAT_ID>64517</NORAD_CAT_ID><ELEMENT_SET_NO>999</ELEMENT_SET_NO><REV_AT_EPOCH>2390</REV_AT_EPOCH><BSTAR>-.16344E-2</BSTAR><MEAN_MOTION_DOT>-.12652E-3</MEAN_MOTION_DOT><MEAN_MOTION_DDOT>0</MEAN_MOTION_DDOT></tleParameters></data></segment></body></omm>
<omm id="CCSDS_OMM_VERS" version="2.0">
<header><CREATION_DATE/><ORIGINATOR/></header><body><segment><metadata><OBJECT_NAME>KUIPER-00058</OBJECT_NAME><OBJECT_ID>2025-134U</OBJECT_ID><CENTER_NAME>EARTH</CENTER_NAME><REF_FRAME>TEME</REF_FRAME><TIME_SYSTEM>UTC</TIME_SYSTEM><MEAN_ELEMENT_THEORY>SGP4</MEAN_ELEMENT_THEORY></metadata><data><meanElements><EPOCH>2025-11-20T08:59:59.275104</EPOCH><MEAN_MOTION>14.79858238</MEAN_MOTION><ECCENTRICITY>.0004548</ECCENTRICITY><INCLINATION>51.9016</INCLINATION><RA_OF_ASC_NODE>348.9165</RA_OF_ASC_NODE><ARG_OF_PERICENTER>316.3414</ARG_OF_PERICENTER><MEAN_ANOMALY>43.7188</MEAN_ANOMALY></meanElements><tleParameters><EPHEMERIS_TYPE>0</EPHEMERIS_TYPE><CLASSIFICATION_TYPE>U</CLASSIFICATION_TYPE><NORAD_CAT_ID>64518</NORAD_CAT_ID><ELEMENT_SET_NO>999</ELEMENT_SET_NO><REV_AT_EPOCH>2399</REV_AT_EPOCH><BSTAR>-.20111E-2</BSTAR><MEAN_MOTION_DOT>-.15493E-3</MEAN_MOTION_DOT><MEAN_MOTION_DDOT>0</MEAN_MOTION_DDOT></tleParameters></data></segment></body></omm>
<omm id="CCSDS_OMM_VERS" version="2.0">
<header><CREATION_DATE/><ORIGINATOR/></header><body><segment><metadata><OBJECT_NAME>KUIPER-00059</OBJECT_NAME><OBJECT_ID>2025-134V</OBJECT_ID><CENTER_NAME>EARTH</CENTER_NAME><REF_FRAME>TEME</REF_FRAME><TIME_SYSTEM>UTC</TIME_SYSTEM><MEAN_ELEMENT_THEORY>SGP4</MEAN_ELEMENT_THEORY></metadata><data><meanElements><EPOCH>2025-11-20T07:30:32.957280</EPOCH><MEAN_MOTION>14.79898541</MEAN_MOTION><ECCENTRICITY>.0004378</ECCENTRICITY><INCLINATION>51.9006</INCLINATION><RA_OF_ASC_NODE>344.2467</RA_OF_ASC_NODE><ARG_OF_PERICENTER>104.8186</ARG_OF_PERICENTER><MEAN_ANOMALY>255.3262</MEAN_ANOMALY></meanElements><tleParameters><EPHEMERIS_TYPE>0</EPHEMERIS_TYPE><CLASSIFICATION_TYPE>U</CLASSIFICATION_TYPE><NORAD_CAT_ID>64519</NORAD_CAT_ID><ELEMENT_SET_NO>999</ELEMENT_SET_NO><REV_AT_EPOCH>2405</REV_AT_EPOCH><BSTAR>.16423E-2</BSTAR><MEAN_MOTION_DOT>.12312E-3</MEAN_MOTION_DOT><MEAN_MOTION_DDOT>0</MEAN_MOTION_DDOT></tleParameters></data></segment></body></omm>
<omm id="CCSDS_OMM_VERS" version="2.0">
<header><CREATION_DATE/><ORIGINATOR/></header><body><segment><metadata><OBJECT_NAME>KUIPER-00060</OBJECT_NAME><OBJECT_ID>2025-134W</OBJECT_ID><CENTER_NAME>EARTH</CENTER_NAME><REF_FRAME>TEME</REF_FRAME><TIME_SYSTEM>UTC</TIME_SYSTEM><MEAN_ELEMENT_THEORY>SGP4</MEAN_ELEMENT_THEORY></metadata><data><meanElements><EPOCH>2025-11-20T10:41:32.356032</EPOCH><MEAN_MOTION>14.80078391</MEAN_MOTION><ECCENTRICITY>.0002286</ECCENTRICITY><INCLINATION>51.9029</INCLINATION><RA_OF_ASC_NODE>344.6880</RA_OF_ASC_NODE><ARG_OF_PERICENTER>12.2416</ARG_OF_PERICENTER><MEAN_ANOMALY>347.8601</MEAN_ANOMALY></meanElements><tleParameters><EPHEMERIS_TYPE>0</EPHEMERIS_TYPE><CLASSIFICATION_TYPE>U</CLASSIFICATION_TYPE><NORAD_CAT_ID>64520</NORAD_CAT_ID><ELEMENT_SET_NO>999</ELEMENT_SET_NO><REV_AT_EPOCH>2404</REV_AT_EPOCH><BSTAR>.48733E-3</BSTAR><MEAN_MOTION_DOT>.3508E-4</MEAN_MOTION_DOT><MEAN_MOTION_DDOT>0</MEAN_MOTION_DDOT></tleParameters></data></segment></body></omm>

</ndm>
