KUIPER-00053            
1 64513U 25134P   25322.39588391  .00003335  00000+0  46695-3 0  9990
2 64513  51.9033 354.9812 0002372 319.3690  40.7095 14.79876591 23736
KUIPER-00054            
1 64514U 25134Q   25324.24809852  .00002653  00000+0  37782-3 0  9994
2 64514  51.8987 342.0329 0004772 305.8644  54.1875 14.79833634 24074
KUIPER-00055            
1 64515U 25134R   25324.34328197  .00018380  00000+0  93220-3 0  9997
2 64515  51.8921 333.5132 0002377  76.1857 283.9386 15.16976670 24207
KUIPER-00056            
1 64516U 25134S   25324.37602519 -.00000607  00000+0 -50594-4 0  9997
2 64516  51.9030 347.4982 0001486 305.9793  54.1031 14.79942890 24018
KUIPER-00057            
1 64517U 25134T   25324.36789177 -.00012652  00000+0 -16344-2 0  9999
2 64517  51.9008 355.0300 0008880 277.0588  82.9364 14.79880628 23904
KUIPER-00058            
1 64518U 25134U   25324.37499161 -.00015493  00000+0 -20111-2 0  9995
2 64518  51.9016 348.9165 0004548 316.3414  43.7188 14.79858238 23996
KUIPER-00059            
1 64519U 25134V   25324.31288145  .00012312  00000+0  16423-2 0  9994
2 64519  51.9006 344.2467 0004378 104.8186 255.3262 14.79898541 24050
KUIPER-00060            
1 64520U 25134W   25324.44551338  .00003508  00000+0  48733-3 0  9994
2 64520  51.9029 344.6880 0002286  12.2416 347.8601 14.80078391 24042
